STARLINK-37041          
1 68104U 26044D   26079.16668981 -.00336573  00000+0 -18150-2 0  9999
2 68104  97.2843  39.8173 0001361  98.3959  92.2965 15.80934755  3035
STARLINK-37021          
1 68105U 26044E   26079.16668981  .00175719  00000+0  90374-3 0  9990
2 68105  97.2838  39.8179 0000997 158.9668  35.9802 15.80719214  3035
STARLINK-37024          
1 68106U 26044F   26079.16668981  .00061495  00000+0  31981-3 0  9995
2 68106  97.2841  39.8202 0001525  99.1739 100.0856 15.80796047  3032
STARLINK-37005          
1 68107U 26044G   26079.16668981  .00040758  00000+0  21276-3 0  9991
2 68107  97.2841  39.8148 0001153  91.9976  94.4516 15.80792084  3038
STARLINK-37017          
1 68108U 26044H   26079.16668981  .00144005  00000+0  74234-3 0  9994
2 68108  97.2842  39.8224 0001471  94.6321 108.8865 15.80752555  3038
STARLINK-36833          
1 68109U 26044J   26079.16668981  .00051655  00000+0  26929-3 0  9991
2 68109  97.2836  39.8249 0001312 109.4781 102.6322 15.80777755  3082
STARLINK-36830          
1 68110U 26044K   26079.16668981  .00063754  00000+0  33159-3 0  9999
2 68110  97.2839  39.8234 0000674 131.2310  76.5865 15.80787234  3086
STARLINK-36791          
1 68111U 26044L   26079.16668981  .00112469  00000+0  58178-3 0  9996
2 68111  97.2838  39.8271 0001453 123.4945  92.8691 15.80762378  3035
STARLINK-36893          
1 68112U 26044M   26079.16668981  .00084694  00000+0  43961-3 0  9999
2 68112  97.2836  39.8289 0001175  84.9145 135.7421 15.80766647  3083
STARLINK-36937          
1 68113U 26044N   26079.16668981  .00082589  00000+0  42886-3 0  9996
2 68113  97.2836  39.8324 0000821 120.8674 108.3403 15.80764270  3039
STARLINK-36229          
1 68114U 26044P   26079.16668981  .00092059  00000+0  47750-3 0  9995
2 68114  97.2834  39.8298 0001003 111.3800 113.5593 15.80761157  3081
STARLINK-36392          
1 68115U 26044Q   26079.16668981  .00054553  00000+0  28440-3 0  9998
2 68115  97.2834  39.8341 0001233  96.6384 136.8531 15.80767007  3088
